OBJECT_NAME,OBJECT_ID,EPOCH,MEAN_MOTION,ECCENTRICITY,INCLINATION,RA_OF_ASC_NODE,ARG_OF_PERICENTER,MEAN_ANOMALY,EPHEMERIS_TYPE,CLASSIFICATION_TYPE,NORAD_CAT_ID,ELEMENT_SET_NO,REV_AT_EPOCH,BSTAR,MEAN_MOTION_DOT,MEAN_MOTION_DDOT
STARLINK-5524,2023-064AC,2026-06-08T00:10:00.372864,14.98328887,.0003265,69.9988,256.9041,271.4106,88.6679,0,U,56474,999,16926,-.21129E-4,-.345E-5,0
STARLINK-5541,2023-064AD,2026-06-07T23:33:56.552256,14.98327766,.000306,69.9994,256.8144,267.3493,92.7316,0,U,56475,999,16926,-.5626E-4,-.764E-5,0
STARLINK-5545,2023-064AE,2026-06-07T23:45:57.792672,14.98328705,.0002945,69.9994,256.8449,268.4478,91.6343,0,U,56476,999,16926,-.22877E-4,-.366E-5,0
STARLINK-5534,2023-064AF,2026-06-06T13:33:19.238400,14.96683787,.0008266,70.0005,260.2979,30.1430,330.0202,0,U,56477,999,16905,-.19239E-1,-.213702E-2,0
STARLINK-6041,2023-064AG,2026-06-07T17:03:23.766336,14.98324775,.0003061,69.9992,257.4745,269.1803,90.9006,0,U,56478,999,16922,-.83406E-4,-.1088E-4,0
STARLINK-6044,2023-064AH,2026-06-07T16:27:20.000160,14.98323417,.0003004,69.9995,257.3843,268.4667,91.6148,0,U,56479,999,16922,-.77318E-4,-.1015E-4,0
STARLINK-6214,2023-064AJ,2026-06-07T20:38:52.145664,15.36566788,.0003911,69.9904,214.4299,285.9913,74.0834,0,U,56480,999,17031,.28699E-3,.10151E-3,0
STARLINK-6222,2023-064AK,2026-06-07T16:39:22.025952,14.98323810,.0003163,69.9997,257.4133,270.1883,89.8914,0,U,56481,999,16922,-.11814E-4,-.234E-5,0
STARLINK-6220,2023-064AL,2026-06-07T23:21:55.101024,14.98328770,.0003329,69.9988,256.7852,270.9353,89.1425,0,U,56482,999,16926,-.43178E-4,-.608E-5,0
STARLINK-5868,2023-064AM,2026-06-07T23:15:54.328320,14.98330128,.0003182,69.9991,256.7669,271.3599,88.7196,0,U,56483,999,16926,-.11263E-4,-.227E-5,0
STARLINK-6221,2023-064AN,2026-06-08T04:00:05.000256,14.98301528,.0003342,70.0001,256.2473,266.2605,100.5138,0,U,56484,999,580,.61755E-2,.74326E-3,0
STARLINK-6210,2023-064AP,2026-06-08T00:21:59.423904,14.98327557,.0003128,69.9991,256.5277,269.4069,90.6731,0,U,56485,999,16927,-.46812E-4,-.651E-5,0
STARLINK-6196,2023-064AR,2026-06-07T14:20:49.018848,14.98328447,.0003175,69.9994,237.6144,270.9990,89.0805,0,U,56487,999,16970,-.47315E-5,-.149E-5,0
STARLINK-6204,2023-064AS,2026-06-07T15:20:55.626144,14.98327343,.0003103,69.9996,237.7563,271.1699,88.9104,0,U,56488,999,16970,-.13449E-4,-.253E-5,0
STARLINK-5923,2023-064AT,2026-06-07T23:03:33.208128,14.98331630,.0002143,70.0019,236.8752,291.6960,68.3971,0,U,56489,999,16975,.66312E-4,.698E-5,0
STARLINK-5873,2023-064AU,2026-06-07T21:57:29.019744,14.98329029,.0003146,69.9996,237.1107,270.9501,89.1298,0,U,56490,999,16974,-.3103E-4,-.463E-5,0
STARLINK-5842,2023-064AV,2026-06-07T22:57:33.169824,14.98328426,.0003286,69.9989,236.8551,266.9346,93.1438,0,U,56491,999,16975,.35989E-4,.336E-5,0
STARLINK-5846,2023-064AW,2026-06-07T22:51:32.569056,14.98329344,.0003113,69.9990,236.8402,269.7157,90.3646,0,U,56492,999,16975,-.46785E-5,-.149E-5,0
STARLINK-5841,2023-064AX,2026-06-07T12:56:23.689248,14.98335030,.0003152,69.9993,217.9245,265.7260,94.3538,0,U,56493,999,17018,.16733E-4,.107E-5,0
STARLINK-5530,2023-064AY,2026-06-07T22:51:46.075104,14.98336312,.0003344,69.9991,236.8408,269.1798,90.8978,0,U,56494,999,16974,.55781E-4,.573E-5,0
STARLINK-5529,2023-064AZ,2026-06-07T22:39:31.286304,14.98329519,.000304,69.9994,236.8114,269.4843,90.5968,0,U,56495,999,16975,-.22467E-4,-.361E-5,0
STARLINK-5526,2023-064BA,2026-06-07T22:33:30.517920,14.98328835,.0003816,69.9993,236.7971,269.5926,90.4795,0,U,56496,999,16975,-.17903E-4,-.307E-5,0
STARLINK-5527,2023-064BB,2026-06-07T14:27:03.911040,14.98326398,.0003736,69.9992,237.6258,265.2684,94.8048,0,U,56497,999,16970,-.62499E-5,-.168E-5,0
STARLINK-5522,2023-064BC,2026-06-07T22:45:31.811040,14.98329159,.0003236,69.9991,236.8258,268.6826,91.3962,0,U,56498,999,16975,-.95669E-5,-.207E-5,0
STARLINK-5775,2023-065A,2026-06-07T23:57:42.018336,15.27577189,.0002758,43.0077,62.2700,266.6442,93.4094,0,U,56503,999,17041,.10635E-4,.3E-6,0
STARLINK-5716,2023-065B,2026-06-08T00:18:04.192128,15.27573811,.0001386,42.9977,62.3700,230.0594,130.0136,0,U,56504,999,17041,.24987E-3,.6619E-4,0
STARLINK-5763,2023-065C,2026-06-08T00:55:04.211616,15.27574556,.0001043,43.0097,62.5636,269.7240,90.3492,0,U,56505,999,17041,-.21357E-4,-.85E-5,0
STARLINK-5340,2023-065D,2026-06-07T10:21:39.132288,15.27622177,.0002911,43.0042,54.4465,284.6799,75.3730,0,U,56506,999,17045,-.22774E-4,-.89E-5,0
STARLINK-5333,2023-065E,2026-06-08T02:29:29.685984,15.27559847,.0001369,43.0042,29.1159,271.6498,88.4197,0,U,56507,999,17080,.57445E-4,.1318E-4,0
STARLINK-5335,2023-065F,2026-06-07T11:04:05.780064,15.27573501,.0001511,43.0065,65.1157,275.3525,84.7154,0,U,56508,999,17033,-.72843E-5,-.463E-5,0
