STARLINK-5524           
1 56474U 23064AC  26159.00694876 -.00000345  00000+0 -21129-4 0  9996
2 56474  69.9988 256.9041 0003265 271.4106  88.6679 14.98328887169267
STARLINK-5541           
1 56475U 23064AD  26158.98190454 -.00000764  00000+0 -56260-4 0  9995
2 56475  69.9994 256.8144 0003060 267.3493  92.7316 14.98327766169263
STARLINK-5545           
1 56476U 23064AE  26158.99025223 -.00000366  00000+0 -22877-4 0  9993
2 56476  69.9994 256.8449 0002945 268.4478  91.6343 14.98328705169260
STARLINK-5534           
1 56477U 23064AF  26157.56480600 -.00213702  00000+0 -19239-1 0  9995
2 56477  70.0005 260.2979 0008266  30.1430 330.0202 14.96683787169051
STARLINK-6041           
1 56478U 23064AG  26158.71069174 -.00001088  00000+0 -83406-4 0  9995
2 56478  69.9992 257.4745 0003061 269.1803  90.9006 14.98324775169223
STARLINK-6044           
1 56479U 23064AH  26158.68564815 -.00001015  00000+0 -77318-4 0  9999
2 56479  69.9995 257.3843 0003004 268.4667  91.6148 14.98323417169229
STARLINK-6214           
1 56480U 23064AJ  26158.86032576  .00010151  00000+0  28699-3 0  9991
2 56480  69.9904 214.4299 0003911 285.9913  74.0834 15.36566788170317
STARLINK-6222           
1 56481U 23064AK  26158.69400493 -.00000234  00000+0 -11814-4 0  9995
2 56481  69.9997 257.4133 0003163 270.1883  89.8914 14.98323810169220
STARLINK-6220           
1 56482U 23064AL  26158.97355441 -.00000608  00000+0 -43178-4 0  9992
2 56482  69.9988 256.7852 0003329 270.9353  89.1425 14.98328770169269
STARLINK-5868           
1 56483U 23064AM  26158.96937880 -.00000227  00000+0 -11263-4 0  9992
2 56483  69.9991 256.7669 0003182 271.3599  88.7196 14.98330128169264
STARLINK-6221           
1 56484U 23064AN  26159.16672454  .00074326  00000+0  61755-2 0  9997
2 56484  70.0001 256.2473 0003342 266.2605 100.5138 14.98301528  5807
STARLINK-6210           
1 56485U 23064AP  26159.01527111 -.00000651  00000+0 -46812-4 0  9992
2 56485  69.9991 256.5277 0003128 269.4069  90.6731 14.98327557169279
STARLINK-6196           
1 56487U 23064AR  26158.59778957 -.00000149  00000+0 -47315-5 0  9994
2 56487  69.9994 237.6144 0003175 270.9990  89.0805 14.98328447169700
STARLINK-6204           
1 56488U 23064AS  26158.63953271 -.00000253  00000+0 -13449-4 0  9990
2 56488  69.9996 237.7563 0003103 271.1699  88.9104 14.98327343169703
STARLINK-5923           
1 56489U 23064AT  26158.96080102  .00000698  00000+0  66312-4 0  9999
2 56489  70.0019 236.8752 0002143 291.6960  68.3971 14.98331630169757
STARLINK-5873           
1 56490U 23064AU  26158.91491921 -.00000463  00000+0 -31030-4 0  9992
2 56490  69.9996 237.1107 0003146 270.9501  89.1298 14.98329029169744
STARLINK-5842           
1 56491U 23064AV  26158.95663391  .00000336  00000+0  35989-4 0  9993
2 56491  69.9989 236.8551 0003286 266.9346  93.1438 14.98328426169755
STARLINK-5846           
1 56492U 23064AW  26158.95246029 -.00000149  00000+0 -46785-5 0  9990
2 56492  69.9990 236.8402 0003113 269.7157  90.3646 14.98329344169753
STARLINK-5841           
1 56493U 23064AX  26158.53916307  .00000107  00000+0  16733-4 0  9999
2 56493  69.9993 217.9245 0003152 265.7260  94.3538 14.98335030170188
STARLINK-5530           
1 56494U 23064AY  26158.95261661  .00000573  00000+0  55781-4 0  9995
2 56494  69.9991 236.8408 0003344 269.1798  90.8978 14.98336312169748
STARLINK-5529           
1 56495U 23064AZ  26158.94411211 -.00000361  00000+0 -22467-4 0  9995
2 56495  69.9994 236.8114 0003040 269.4843  90.5968 14.98329519169751
STARLINK-5526           
1 56496U 23064BA  26158.93993655 -.00000307  00000+0 -17903-4 0  9991
2 56496  69.9993 236.7971 0003816 269.5926  90.4795 14.98328835169752
STARLINK-5527           
1 56497U 23064BB  26158.60212860 -.00000168  00000+0 -62499-5 0  9994
2 56497  69.9992 237.6258 0003736 265.2684  94.8048 14.98326398169701
STARLINK-5522           
1 56498U 23064BC  26158.94828485 -.00000207  00000+0 -95669-5 0  9997
2 56498  69.9991 236.8258 0003236 268.6826  91.3962 14.98329159169752
STARLINK-5775           
1 56503U 23065A   26158.99840299  .00000030  00000+0  10635-4 0  9998
2 56503  43.0077  62.2700 0002758 266.6442  93.4094 15.27577189170415
STARLINK-5716           
1 56504U 23065B   26159.01254852  .00006619  00000+0  24987-3 0  9990
2 56504  42.9977  62.3700 0001386 230.0594 130.0136 15.27573811170416
STARLINK-5763           
1 56505U 23065C   26159.03824319 -.00000850  00000+0 -21357-4 0  9996
2 56505  43.0097  62.5636 0001043 269.7240  90.3492 15.27574556170419
STARLINK-5340           
1 56506U 23065D   26158.43170292 -.00000890  00000+0 -22774-4 0  9992
2 56506  43.0042  54.4465 0002911 284.6799  75.3730 15.27622177170455
STARLINK-5333           
1 56507U 23065E   26159.10381581  .00001318  00000+0  57445-4 0  9990
2 56507  43.0042  29.1159 0001369 271.6498  88.4197 15.27559847170807
STARLINK-5335           
1 56508U 23065F   26158.46117801 -.00000463  00000+0 -72843-5 0  9993
2 56508  43.0065  65.1157 0001511 275.3525  84.7154 15.27573501170335
